{"fetched_at":"2026-07-20T07:40:17.151Z","source":"https://celestrak.org/NORAD/elements/gp.php?GROUP=kuiper&FORMAT=JSON","constellation":"kuiper","records":[{"OBJECT_NAME":"KUIPER-00589","OBJECT_ID":"2026-151E","EPOCH":"2026-07-19T12:59:49.841376","CLASSIFICATION_TYPE":"U","MEAN_MOTION":15.37369502,"ECCENTRICITY":0.0004589,"INCLINATION":51.8758,"RA_OF_ASC_NODE":159.3693,"ARG_OF_PERICENTER":154.1869,"MEAN_ANOMALY":205.9347,"EPHEMERIS_TYPE":0,"NORAD_CAT_ID":69767,"ELEMENT_SET_NO":999,"REV_AT_EPOCH":268,"BSTAR":-0.00028457,"MEAN_MOTION_DOT":-0.00010968,"MEAN_MOTION_DDOT":0},{"OBJECT_NAME":"KUIPER-00598","OBJECT_ID":"2026-151F","EPOCH":"2026-07-19T20:00:01.999008","CLASSIFICATION_TYPE":"U","MEAN_MOTION":15.34313009,"ECCENTRICITY":0.000869,"INCLINATION":51.8647,"RA_OF_ASC_NODE":158.211,"ARG_OF_PERICENTER":179.0068,"MEAN_ANOMALY":226.1797,"EPHEMERIS_TYPE":0,"NORAD_CAT_ID":69768,"ELEMENT_SET_NO":999,"REV_AT_EPOCH":327,"BSTAR":0.0012309,"MEAN_MOTION_DOT":0.00041407,"MEAN_MOTION_DDOT":0},{"OBJECT_NAME":"KUIPER-00604","OBJECT_ID":"2026-151G","EPOCH":"2026-07-19T09:39:08.582688","CLASSIFICATION_TYPE":"U","MEAN_MOTION":15.38304923,"ECCENTRICITY":0.00027079,"INCLINATION":51.8805,"RA_OF_ASC_NODE":159.9344,"ARG_OF_PERICENTER":118.4354,"MEAN_ANOMALY":241.6906,"EPHEMERIS_TYPE":0,"NORAD_CAT_ID":69769,"ELEMENT_SET_NO":999,"REV_AT_EPOCH":266,"BSTAR":0.00028299843,"MEAN_MOTION_DOT":0.00010473,"MEAN_MOTION_DDOT":0},{"OBJECT_NAME":"KUIPER-00609","OBJECT_ID":"2026-151H","EPOCH":"2026-07-19T20:27:13.072032","CLASSIFICATION_TYPE":"U","MEAN_MOTION":15.38709271,"ECCENTRICITY":0.0001479,"INCLINATION":51.8806,"RA_OF_ASC_NODE":157.7038,"ARG_OF_PERICENTER":50.8026,"MEAN_ANOMALY":309.3092,"EPHEMERIS_TYPE":0,"NORAD_CAT_ID":69770,"ELEMENT_SET_NO":999,"REV_AT_EPOCH":273,"BSTAR":0.00036318,"MEAN_MOTION_DOT":0.00013742,"MEAN_MOTION_DDOT":0},{"OBJECT_NAME":"KUIPER-00611","OBJECT_ID":"2026-151J","EPOCH":"2026-07-19T09:35:44.205216","CLASSIFICATION_TYPE":"U","MEAN_MOTION":15.38514241,"ECCENTRICITY":0.00016925,"INCLINATION":51.8807,"RA_OF_ASC_NODE":159.9157,"ARG_OF_PERICENTER":118.8141,"MEAN_ANOMALY":241.3017,"EPHEMERIS_TYPE":0,"NORAD_CAT_ID":69771,"ELEMENT_SET_NO":999,"REV_AT_EPOCH":266,"BSTAR":0.00028219479,"MEAN_MOTION_DOT":0.00010516,"MEAN_MOTION_DDOT":0},{"OBJECT_NAME":"KUIPER-00612","OBJECT_ID":"2026-151K","EPOCH":"2026-07-19T12:51:02.549088","CLASSIFICATION_TYPE":"U","MEAN_MOTION":15.38008452,"ECCENTRICITY":0.0003644,"INCLINATION":51.8793,"RA_OF_ASC_NODE":159.3297,"ARG_OF_PERICENTER":120.106,"MEAN_ANOMALY":240.0289,"EPHEMERIS_TYPE":0,"NORAD_CAT_ID":69772,"ELEMENT_SET_NO":999,"REV_AT_EPOCH":268,"BSTAR":0.00031369,"MEAN_MOTION_DOT":0.0001154,"MEAN_MOTION_DDOT":0},{"OBJECT_NAME":"KUIPER-00614","OBJECT_ID":"2026-151L","EPOCH":"2026-07-19T14:21:12.182688","CLASSIFICATION_TYPE":"U","MEAN_MOTION":15.38213806,"ECCENTRICITY":0.0002715,"INCLINATION":51.8808,"RA_OF_ASC_NODE":158.9958,"ARG_OF_PERICENTER":134.2049,"MEAN_ANOMALY":225.9162,"EPHEMERIS_TYPE":0,"NORAD_CAT_ID":69773,"ELEMENT_SET_NO":999,"REV_AT_EPOCH":269,"BSTAR":0.00029007,"MEAN_MOTION_DOT":0.00010712,"MEAN_MOTION_DDOT":0},{"OBJECT_NAME":"KUIPER-00615","OBJECT_ID":"2026-151M","EPOCH":"2026-07-19T20:50:37.167936","CLASSIFICATION_TYPE":"U","MEAN_MOTION":15.37300416,"ECCENTRICITY":0.0006329,"INCLINATION":51.8786,"RA_OF_ASC_NODE":157.8077,"ARG_OF_PERICENTER":164.0865,"MEAN_ANOMALY":196.0321,"EPHEMERIS_TYPE":0,"NORAD_CAT_ID":69774,"ELEMENT_SET_NO":999,"REV_AT_EPOCH":273,"BSTAR":0.00033705,"MEAN_MOTION_DOT":0.00012145,"MEAN_MOTION_DDOT":0},{"OBJECT_NAME":"KUIPER-00616","OBJECT_ID":"2026-151N","EPOCH":"2026-07-19T20:32:32.210304","CLASSIFICATION_TYPE":"U","MEAN_MOTION":15.38401162,"ECCENTRICITY":0.0002822,"INCLINATION":51.879,"RA_OF_ASC_NODE":157.7299,"ARG_OF_PERICENTER":137.0731,"MEAN_ANOMALY":223.0477,"EPHEMERIS_TYPE":0,"NORAD_CAT_ID":69775,"ELEMENT_SET_NO":999,"REV_AT_EPOCH":273,"BSTAR":0.00040879,"MEAN_MOTION_DOT":0.00015363,"MEAN_MOTION_DDOT":0},{"OBJECT_NAME":"KUIPER-00617","OBJECT_ID":"2026-151P","EPOCH":"2026-07-19T20:41:07.852416","CLASSIFICATION_TYPE":"U","MEAN_MOTION":15.37858972,"ECCENTRICITY":0.0003678,"INCLINATION":51.8799,"RA_OF_ASC_NODE":157.7663,"ARG_OF_PERICENTER":142.5405,"MEAN_ANOMALY":217.5839,"EPHEMERIS_TYPE":0,"NORAD_CAT_ID":69776,"ELEMENT_SET_NO":999,"REV_AT_EPOCH":273,"BSTAR":0.00036708,"MEAN_MOTION_DOT":0.00013507,"MEAN_MOTION_DDOT":0},{"OBJECT_NAME":"KUIPER-00619","OBJECT_ID":"2026-151Q","EPOCH":"2026-07-19T12:41:09.546144","CLASSIFICATION_TYPE":"U","MEAN_MOTION":15.38607346,"ECCENTRICITY":0.00017879,"INCLINATION":51.8805,"RA_OF_ASC_NODE":159.2805,"ARG_OF_PERICENTER":80.9272,"MEAN_ANOMALY":279.1917,"EPHEMERIS_TYPE":0,"NORAD_CAT_ID":69777,"ELEMENT_SET_NO":999,"REV_AT_EPOCH":268,"BSTAR":0.00038295722,"MEAN_MOTION_DOT":0.00014464,"MEAN_MOTION_DDOT":0},{"OBJECT_NAME":"KUIPER-00621","OBJECT_ID":"2026-151R","EPOCH":"2026-07-19T14:18:29.590848","CLASSIFICATION_TYPE":"U","MEAN_MOTION":15.37960437,"ECCENTRICITY":0.0003963,"INCLINATION":51.8786,"RA_OF_ASC_NODE":158.9891,"ARG_OF_PERICENTER":181.3547,"MEAN_ANOMALY":178.743,"EPHEMERIS_TYPE":0,"NORAD_CAT_ID":69778,"ELEMENT_SET_NO":999,"REV_AT_EPOCH":269,"BSTAR":-0.0077804,"MEAN_MOTION_DOT":-0.0028478,"MEAN_MOTION_DDOT":0},{"OBJECT_NAME":"KUIPER-00622","OBJECT_ID":"2026-151S","EPOCH":"2026-07-19T20:54:21.502944","CLASSIFICATION_TYPE":"U","MEAN_MOTION":15.36988793,"ECCENTRICITY":0.0006515,"INCLINATION":51.8737,"RA_OF_ASC_NODE":157.8253,"ARG_OF_PERICENTER":159.7441,"MEAN_ANOMALY":200.3805,"EPHEMERIS_TYPE":0,"NORAD_CAT_ID":69779,"ELEMENT_SET_NO":999,"REV_AT_EPOCH":273,"BSTAR":0.00034265,"MEAN_MOTION_DOT":0.00012227,"MEAN_MOTION_DDOT":0},{"OBJECT_NAME":"KUIPER-00623","OBJECT_ID":"2026-151T","EPOCH":"2026-07-17T06:22:24.548160","CLASSIFICATION_TYPE":"U","MEAN_MOTION":15.37672053,"ECCENTRICITY":0.0006129,"INCLINATION":51.8777,"RA_OF_ASC_NODE":170.365,"ARG_OF_PERICENTER":146.6,"MEAN_ANOMALY":213.5375,"EPHEMERIS_TYPE":0,"NORAD_CAT_ID":69780,"ELEMENT_SET_NO":999,"REV_AT_EPOCH":233,"BSTAR":0.003498,"MEAN_MOTION_DOT":0.00133416,"MEAN_MOTION_DDOT":0},{"OBJECT_NAME":"KUIPER-00626","OBJECT_ID":"2026-151U","EPOCH":"2026-07-19T08:45:46.121760","CLASSIFICATION_TYPE":"U","MEAN_MOTION":15.34825609,"ECCENTRICITY":0.0009935,"INCLINATION":51.8725,"RA_OF_ASC_NODE":160.4295,"ARG_OF_PERICENTER":176.2962,"MEAN_ANOMALY":183.8099,"EPHEMERIS_TYPE":0,"NORAD_CAT_ID":69781,"ELEMENT_SET_NO":999,"REV_AT_EPOCH":265,"BSTAR":-0.0011342889,"MEAN_MOTION_DOT":-0.00039134,"MEAN_MOTION_DDOT":0},{"OBJECT_NAME":"KUIPER-00627","OBJECT_ID":"2026-151V","EPOCH":"2026-07-19T20:00:01.999008","CLASSIFICATION_TYPE":"U","MEAN_MOTION":15.34299602,"ECCENTRICITY":0.0010973,"INCLINATION":51.8698,"RA_OF_ASC_NODE":158.1981,"ARG_OF_PERICENTER":186.6945,"MEAN_ANOMALY":228.0696,"EPHEMERIS_TYPE":0,"NORAD_CAT_ID":69782,"ELEMENT_SET_NO":999,"REV_AT_EPOCH":130,"BSTAR":0.0013505,"MEAN_MOTION_DOT":0.00045503,"MEAN_MOTION_DDOT":0}]}
